[{"OBJECT_NAME":"TYVAK-0173","OBJECT_ID":"2021-059P","EPOCH":"2026-03-09T20:34:33.037248","MEAN_MOTION":14.81501003,"ECCENTRICITY":0.0009326,"INCLINATION":96.0076,"RA_OF_ASC_NODE":169.9257,"ARG_OF_PERICENTER":18.4576,"MEAN_ANOMALY":341.6978,"EPHEMERIS_TYPE":0,"CLASSIFICATION_TYPE":"U","NORAD_CAT_ID":48892,"ELEMENT_SET_NO":999,"REV_AT_EPOCH":25353,"BSTAR":0.00038359729,"MEAN_MOTION_DOT":2.977e-5,"MEAN_MOTION_DDOT":0},{"OBJECT_NAME":"GEESAT-6 04","OBJECT_ID":"2025-214E","EPOCH":"2026-03-09T23:39:16.844832","MEAN_MOTION":14.829845,"ECCENTRICITY":0.00094543,"INCLINATION":49.9846,"RA_OF_ASC_NODE":47.7418,"ARG_OF_PERICENTER":207.5517,"MEAN_ANOMALY":152.4921,"EPHEMERIS_TYPE":0,"CLASSIFICATION_TYPE":"U","NORAD_CAT_ID":65716,"ELEMENT_SET_NO":999,"REV_AT_EPOCH":2478,"BSTAR":0.00038451427,"MEAN_MOTION_DOT":2.934e-5,"MEAN_MOTION_DDOT":0}]
